NUSAT-1 (FRESCO)        
1 41557U 16033B   21340.54656041  .00004508  00000+0  15456-3 0  9996
2 41557  97.3937  73.6326 0012125 352.1252 135.8605 15.30634413307840
BEESAT-4                
1 41619U 16040W   21339.92782858  .00003982  00000+0  15379-3 0  9998
2 41619  97.2473  31.1143 0012029  86.0372 274.2242 15.26758274291167
CAS-2T & KS-1Q          
1 41847U 16066G   21339.89562720  .00000216  00000+0  41797-4 0  9990
2 41847  98.5798  39.5452 0365919  68.5600 295.4200 14.38296416266525
NAYIF-1 (EO-88)         
1 42017U 17008BX  21339.91978239  .00004826  00000+0  17089-3 0  9993
2 42017  97.2970  44.3978 0004963 203.9886 156.1124 15.29587554267458
ZHUHAI-1 02 (CAS-4B)    
1 42759U 17034B   21340.44669759  .00001440  00000+0  98873-4 0  9999
2 42759  43.0188 315.2958 0007367 168.6822 335.2400 15.10597537247151
ZHUHAI-1 01 (CAS-4A)    
1 42761U 17034D   21340.42648794  .00001356  00000+0  93638-4 0  9996
2 42761  43.0186 314.3302 0007505 166.7091 330.4935 15.10683917247154
MAX VALIER SAT          
1 42778U 17036P   21340.07331706  .00002535  00000+0  10613-3 0  9990
2 42778  97.2335  22.9224 0009941 293.7773  66.2422 15.24397966247424
RADFXSAT (FOX-1B)       
1 43017U 17073E   21340.22581394  .00001095  00000+0  87865-4 0  9999
2 43017  97.6924 237.2830 0254875  99.6175 263.3930 14.79991327218523
FOX-1D (AO-92)          
1 43137U 18004AC  21340.17303580  .00003014  00000+0  11933-3 0  9995
2 43137  97.3918  52.3847 0007631 335.6439  24.4438 15.26191522216835
DIWATA-2B               
1 43678U 18084H   21340.50013110 -.00000070  00000+0 -11799-5 0  9990
2 43678  97.9458 106.9092 0009244 195.7990 164.2938 14.91842256169087
ES'HAIL 2               
1 43700U 18090A   21340.32166635  .00000149  00000+0  00000+0 0  9996
2 43700   0.0199 356.3674 0001868 280.6164 299.9289  1.00270258 11330
FOX-1CLIFF (AO-95)      
1 43770U 18099N   21339.74423237  .00001260  00000+0  11848-3 0  9991
2 43770  97.6476  45.9970 0013954 198.7667 161.3041 14.95578317164054
ITASAT 1                
1 43786U 18099AE  21340.16659586  .00000268  00000+0  29080-4 0  9999
2 43786  97.6498  47.2064 0014729 190.9773 169.1129 14.95839007164157
JY1SAT (JO-97)          
1 43803U 18099AX  21340.16646479  .00000415  00000+0  41908-4 0  9993
2 43803  97.6459  46.9441 0014667 190.5889 169.5025 14.96139941164165
UWE-4                   
1 43880U 18111E   21339.70005886  .00001316  00000+0  11879-3 0  9996
2 43880  97.6785 244.4147 0010324 248.1968 111.8156 14.97165465160706
NEXUS (FO-99)           
1 43937U 19003F   21340.09905108  .00003612  00000+0  13847-3 0  9998
2 43937  97.1560  16.3124 0024043 121.0682 239.2921 15.26852579160449
PSAT2 (NO-104)          
1 44354U 19036R   21339.90933413  .00020967  00000+0  25249-3 0  9997
2 44354  28.5289  58.4398 0296797 344.0246  15.1156 15.21078316135031
BRICSAT2 (NO-103)       
1 44355U 19036S   21338.71038851  .00054893 -53194-5  43781-3 0  9993
2 44355  28.5245 346.3853 0201680 101.4748 260.8574 15.47112582135651
JAISAT-1                
1 44419U 19038F   21339.87249367  .00002472  00000+0  13706-3 0  9991
2 44419  97.6122 304.2322 0022481  81.4781 278.8997 15.14537574133732
DUCHIFAT-3              
1 44854U 19089C   21339.91070778  .00001186  00000+0  10025-3 0  9995
2 44854  36.9626 166.4519 0006756  78.1173 282.0321 14.99838488108854
CAS-6 (TO-108)          
1 44881U 19093C   21340.49456869  .00000192  00000+0  31194-4 0  9991
2 44881  97.9127  57.3354 0016515  93.2494 267.0606 14.81519070106200
RS-44 & BREEZE-KM R/B   
1 44909U 19096E   21339.76869837  .00000016  00000+0  12685-4 0  9995
2 44909  82.5216 358.9806 0218293  52.7892 309.2912 12.79711389 90732
ORBITAL FACTORY 2 (OF-2)
1 45113U 19071C   21340.09981111  .00006387  00000+0  17921-3 0  9998
2 45113  51.6421 284.2004 0010872 188.0922 171.9888 15.37828372103566
HUSKYSAT-1 (HO-107)     
1 45119U 19071J   21340.05068525  .00006889  00000+0  19334-3 0  9992
2 45119  51.6417 283.8610 0010525 184.6135 175.4754 15.37686670103551
BY70-2                  
1 45857U 20042B   21340.48157711  .00002482  00000+0  35366-3 0  9992
2 45857  97.9732  54.3995 0010865  27.6998 332.4784 14.77657381 76940
SALSAT                  
1 46495U 20068K   21339.89508298  .00001218  00000+0  93177-4 0  9993
2 46495  97.7078 276.5152 0016046 207.6805 152.3566 15.03706128 65092
BY70-3                  
1 46839U 20079N   21340.54751442  .00007255  00000+0  21264-3 0  9996
2 46839  97.2256  51.0049 0005800 320.0492 146.7836 15.35477668 60592
RADFXSAT-2 (AO-109)     
1 47311U 21002C   21340.40888820  .00002290  00000+0  10832-3 0  9998
2 47311  60.6877   7.1328 0035163 134.1305 226.2684 15.22520461 49054
UVSQ-SAT                
1 47438U 21006AB  21339.89475774  .00001844  00000+0  10590-3 0  9998
2 47438  97.4666  37.8975 0011554 220.2213 139.8164 15.13708661 47981
DIY-1 (ARDUIQUBE)       
1 47963U 21022AH  21340.37905795  .00003983  00000+0  25798-3 0  9997
2 47963  97.5459 239.6420 0020995  76.9259 283.4311 15.08528954 37806
